NORAD_CAT_ID,OBJECT_NAME,OBJECT_TYPE,EPOCH,MEAN_MOTION,ECCENTRICITY,INCLINATION,RA_OF_ASC_NODE,ARG_OF_PERICENTER,MEAN_ANOMALY,BSTAR,MEAN_MOTION_DOT,MEAN_MOTION_DDOT,TLE_LINE0,TLE_LINE1,TLE_LINE2,SEMIMAJOR_AXIS,PERIOD,APOGEE,PERIGEE,DECAYED
55916.0,STARLINK-5796,PAYLOAD,2024-01-27 14:35:23,14.98327403,0.0002528,70.0005,91.2802,263.2074,96.8798,-3.374e-05,-4.95e-06,0.0,0 STARLINK-5796,1 55916U 23037C   24027.60791320 -.00000495  00000-0 -33740-4 0  9995,2 55916  70.0005  91.2802 0002528 263.2074  96.8798 14.98327403 47833,6950.201,96.107,573.823,570.309,0.0
55916.0,STARLINK-5796,PAYLOAD,2024-01-28 11:25:08,14.98333696,0.000272,70.0001,89.0917,264.8889,95.1959,-2.1706e-05,-3.52e-06,0.0,0 STARLINK-5796,1 55916U 23037C   24028.47578722 -.00000352  00000-0 -21706-4 0  9991,2 55916  70.0001  89.0917 0002720 264.8889  95.1959 14.98333696 48301,6950.181,96.107,573.937,570.156,0.0
55916.0,STARLINK-5796,PAYLOAD,2024-01-28 13:01:16,14.98333584,0.0002722,70.0,88.9234,265.4594,94.6254,-2.2941e-05,-3.67e-06,0.0,0 STARLINK-5796,1 55916U 23037C   24028.54254717 -.00000367  00000-0 -22941-4 0  9992,2 55916  70.0000  88.9234 0002722 265.4594  94.6254 14.98333584 47972,6950.182,96.107,573.939,570.155,0.0
55916.0,STARLINK-5796,PAYLOAD,2024-01-29 11:27:08,14.98333602,0.0002866,69.9997,86.566,264.8408,95.2424,0.00012292,1.374e-05,0.0,0 STARLINK-5796,1 55916U 23037C   24029.47718172  .00001374  00000-0  12292-3 0  9999,2 55916  69.9997  86.5660 0002866 264.8408  95.2424 14.98333602 48458,6950.182,96.107,574.039,570.055,0.0
55916.0,STARLINK-5796,PAYLOAD,2024-01-29 13:03:16,14.98333211,0.0002895,69.9996,86.3973,267.3152,92.7675,0.00011437,1.272e-05,0.0,0 STARLINK-5796,1 55916U 23037C   24029.54394215  .00001272  00000-0  11437-3 0  9992,2 55916  69.9996  86.3973 0002895 267.3152  92.7675 14.98333211 48128,6950.183,96.107,574.06,570.036,0.0
55916.0,STARLINK-5796,PAYLOAD,2024-01-30 03:28:29,14.98328984,0.0002752,69.9998,84.8823,263.3977,96.6869,2.1025e-05,1.58e-06,0.0,0 STARLINK-5796,1 55916U 23037C   24030.14478704  .00000158  00000-0  21025-4 0  9993,2 55916  69.9998  84.8823 0002752 263.3977  96.6869 14.98328984 48556,6950.196,96.107,573.974,570.148,0.0
55916.0,STARLINK-5796,PAYLOAD,2024-01-30 13:05:18,14.98324854,0.000289,69.9998,83.8715,264.7253,95.3576,1.4589e-05,8.1e-07,0.0,0 STARLINK-5796,1 55916U 23037C   24030.54535005  .00000081  00000-0  14589-4 0  9997,2 55916  69.9998  83.8715 0002890 264.7253  95.3576 14.98324854 48272,6950.209,96.107,574.082,570.065,0.0
55916.0,STARLINK-5796,PAYLOAD,2024-01-31 11:31:11,14.98326895,0.000296,69.9997,81.5154,266.492,93.5901,-6.9054e-05,-9.17e-06,0.0,0 STARLINK-5796,1 55916U 23037C   24031.47999175 -.00000917  00000-0 -69054-4 0  9999,2 55916  69.9997  81.5154 0002960 266.4920  93.5901 14.98326895 48753,6950.202,96.107,574.125,570.01,0.0
55916.0,STARLINK-5796,PAYLOAD,2024-02-01 11:33:11,14.98332764,0.0003125,69.9995,78.9907,268.4261,91.6541,0.00011864,1.323e-05,0.0,0 STARLINK-5796,1 55916U 23037C   24032.48138375  .00001323  00000-0  11864-3 0  9993,2 55916  69.9995  78.9907 0003125 268.4261  91.6541 14.98332764 48909,6950.184,96.107,574.221,569.877,0.0
55916.0,STARLINK-5796,PAYLOAD,2024-02-02 11:35:12,14.98330206,0.0002886,69.9999,76.4668,258.5465,101.537,9.7999e-05,1.077e-05,0.0,0 STARLINK-5796,1 55916U 23037C   24033.48278526  .00001077  00000-0  97999-4 0  9997,2 55916  69.9999  76.4668 0002886 258.5465 101.5370 14.98330206 49056,6950.192,96.107,574.063,570.051,0.0
55916.0,STARLINK-5796,PAYLOAD,2024-02-02 13:11:20,14.98330413,0.0002926,69.9997,76.2974,264.3995,95.6831,9.7813e-05,1.074e-05,0.0,0 STARLINK-5796,1 55916U 23037C   24033.54954550  .00001074  00000-0  97813-4 0  9994,2 55916  69.9997  76.2974 0002926 264.3995  95.6831 14.98330413 48728,6950.192,96.107,574.09,570.023,0.0
55916.0,STARLINK-5796,PAYLOAD,2024-02-03 11:37:13,14.98330521,0.0002821,69.9997,73.9407,262.6457,97.4381,-2.2442e-05,-3.61e-06,0.0,0 STARLINK-5796,1 55916U 23037C   24034.48418784 -.00000361  00000-0 -22442-4 0  9998,2 55916  69.9997  73.9407 0002821 262.6457  97.4381 14.98330521 49205,6950.191,96.107,574.017,570.096,0.0
55916.0,STARLINK-5796,PAYLOAD,2024-02-04 11:39:14,14.98336697,0.0002888,69.9995,71.4157,263.2716,96.8114,6.2715e-05,6.56e-06,0.0,0 STARLINK-5796,1 55916U 23037C   24035.48557926  .00000656  00000-0  62715-4 0  9993,2 55916  69.9995  71.4157 0002888 263.2716  96.8114 14.98336697 49359,6950.172,96.107,574.044,570.03,0.0
55916.0,STARLINK-5796,PAYLOAD,2024-02-04 19:39:54,14.98336042,0.0002895,69.9996,70.5738,262.4591,97.6239,7.4906e-05,8.01e-06,0.0,0 STARLINK-5796,1 55916U 23037C   24035.81937802  .00000801  00000-0  74906-4 0  9992,2 55916  69.9996  70.5738 0002895 262.4591  97.6239 14.98336042 49064,6950.174,96.107,574.051,570.027,0.0
55916.0,STARLINK-5796,PAYLOAD,2024-02-05 03:40:35,14.98326715,0.0003093,69.9989,69.7318,270.8501,89.2304,-1.3468e-05,-2.54e-06,0.0,0 STARLINK-5796,1 55916U 23037C   24036.15318632 -.00000254  00000-0 -13468-4 0  9994,2 55916  69.9989  69.7318 0003093 270.8501  89.2304 14.98326715 49454,6950.203,96.107,574.218,569.918,0.0
55916.0,STARLINK-5796,PAYLOAD,2024-02-05 11:41:15,14.98331714,0.0003086,69.999,68.8905,271.3527,88.7279,4.9669e-05,5e-06,0.0,0 STARLINK-5796,1 55916U 23037C   24036.48698179  .00000500  00000-0  49669-4 0  9991,2 55916  69.9990  68.8905 0003086 271.3527  88.7279 14.98331714 49162,6950.188,96.107,574.197,569.908,0.0
55916.0,STARLINK-5796,PAYLOAD,2024-02-06 11:43:15,14.98335831,0.0002994,69.9992,66.3659,272.3045,87.7771,2.3958e-05,1.93e-06,0.0,0 STARLINK-5796,1 55916U 23037C   24037.48837895  .00000193  00000-0  23958-4 0  9993,2 55916  69.9992  66.3659 0002994 272.3045  87.7771 14.98335831 49650,6950.175,96.107,574.121,569.959,0.0
55916.0,STARLINK-5796,PAYLOAD,2024-02-07 11:45:16,14.98332171,0.0002835,69.9996,63.8393,269.8525,90.2309,6.7853e-05,7.17e-06,0.0,0 STARLINK-5796,1 55916U 23037C   24038.48977950  .00000717  00000-0  67853-4 0  9995,2 55916  69.9996  63.8393 0002835 269.8525  90.2309 14.98332171 49806,6950.186,96.107,574.022,570.081,0.0
55916.0,STARLINK-5796,PAYLOAD,2024-02-08 11:47:17,14.983315,0.0003014,69.9998,61.3145,269.9194,90.1619,4.3757e-05,4.29e-06,0.0,0 STARLINK-5796,1 55916U 23037C   24039.49118054  .00000429  00000-0  43757-4 0  9996,2 55916  69.9998  61.3145 0003014 269.9194  90.1619 14.98331500 49953,6950.188,96.107,574.148,569.958,0.0
55916.0,STARLINK-5796,PAYLOAD,2024-02-09 10:13:10,14.98329618,0.000268,69.9998,58.958,263.8757,96.2097,4.5645e-05,4.52e-06,0.0,0 STARLINK-5796,1 55916U 23037C   24040.42582124  .00000452  00000-0  45645-4 0  9998,2 55916  69.9998  58.9580 0002680 263.8757  96.2097 14.98329618 49756,6950.194,96.107,573.922,570.196,0.0
55916.0,STARLINK-5796,PAYLOAD,2024-02-10 03:50:39,14.98328116,0.0002692,69.9999,57.1065,263.8391,96.2462,1.2866e-05,6.1e-07,0.0,0 STARLINK-5796,1 55916U 23037C   24041.16018325  .00000061  00000-0  12866-4 0  9992,2 55916  69.9999  57.1065 0002692 263.8391  96.2462 14.98328116 50203,6950.199,96.107,573.935,570.193,0.0
55916.0,STARLINK-5796,PAYLOAD,2024-02-10 10:15:12,14.98328542,0.0002687,69.9999,56.4333,263.5901,96.4953,1.7625e-05,1.17e-06,0.0,0 STARLINK-5796,1 55916U 23037C   24041.42722339  .00000117  00000-0  17625-4 0  9998,2 55916  69.9999  56.4333 0002687 263.5901  96.4953 14.98328542 49906,6950.197,96.107,573.93,570.195,0.0
55916.0,STARLINK-5796,PAYLOAD,2024-02-11 03:52:40,14.98331056,0.0002677,70.0001,54.5821,258.9662,101.1196,5.6715e-05,5.84e-06,0.0,0 STARLINK-5796,1 55916U 23037C   24042.16158077  .00000584  00000-0  56715-4 0  9993,2 55916  70.0001  54.5821 0002677 258.9662 101.1196 14.98331056 50353,6950.19,96.107,573.915,570.194,0.0
55916.0,STARLINK-5796,PAYLOAD,2024-02-11 10:17:12,14.98331614,0.0002677,70.0002,53.9089,260.2319,99.8538,5.8602e-05,6.06e-06,0.0,0 STARLINK-5796,1 55916U 23037C   24042.42862027  .00000606  00000-0  58602-4 0  9991,2 55916  70.0002  53.9089 0002677 260.2319  99.8538 14.98331614 50058,6950.188,96.107,573.913,570.192,0.0
55916.0,STARLINK-5796,PAYLOAD,2024-02-12 03:54:41,14.98331191,0.0002773,70.0,52.0562,268.3622,91.7219,6.9981e-05,7.42e-06,0.0,0 STARLINK-5796,1 55916U 23037C   24043.16297967  .00000742  00000-0  69981-4 0  9991,2 55916  70.0000  52.0562 0002773 268.3622  91.7219 14.98331191 50502,6950.189,96.107,573.981,570.127,0.0
55916.0,STARLINK-5796,PAYLOAD,2024-02-12 10:19:13,14.98334011,0.0002735,70.0002,51.3831,268.0651,92.0194,0.00010175,1.121e-05,0.0,0 STARLINK-5796,1 55916U 23037C   24043.43001734  .00001121  00000-0  10175-3 0  9998,2 55916  70.0002  51.3831 0002735 268.0651  92.0194 14.98334011 50209,6950.18,96.107,573.946,570.145,0.0
55916.0,STARLINK-5796,PAYLOAD,2024-02-13 03:56:42,14.98327858,0.0002596,70.0007,49.5318,266.6763,93.4099,-6.2932e-06,-1.68e-06,0.0,0 STARLINK-5796,1 55916U 23037C   24044.16438346 -.00000168  00000-0 -62932-5 0  9994,2 55916  70.0007  49.5318 0002596 266.6763  93.4099 14.98327858 50655,6950.2,96.107,573.869,570.26,0.0
55916.0,STARLINK-5796,PAYLOAD,2024-02-13 10:21:14,14.98328805,0.000259,70.0007,48.8585,266.5721,93.5141,7.1296e-06,-8e-08,0.0,0 STARLINK-5796,1 55916U 23037C   24044.43142315 -.00000008  00000-0  71296-5 0  9997,2 55916  70.0007  48.8585 0002590 266.5721  93.5141 14.98328805 50359,6950.197,96.107,573.862,570.261,0.0
55916.0,STARLINK-5796,PAYLOAD,2024-02-13 23:10:18,14.98335259,0.0002617,70.0005,47.5117,267.8313,92.2547,5.3699e-05,5.48e-06,0.0,0 STARLINK-5796,1 55916U 23037C   24044.96549745  .00000548  00000-0  53699-4 0  9997,2 55916  70.0005  47.5117 0002617 267.8313  92.2547 14.98335259 50431,6950.177,96.107,573.86,570.223,0.0
55916.0,STARLINK-5796,PAYLOAD,2024-02-14 03:58:43,14.98334325,0.000264,70.0004,47.0066,267.9568,92.1289,4.1035e-05,3.97e-06,0.0,0 STARLINK-5796,1 55916U 23037C   24045.16577790  .00000397  00000-0  41035-4 0  9994,2 55916  70.0004  47.0066 0002640 267.9568  92.1289 14.98334325 50803,6950.18,96.107,573.879,570.21,0.0
